     2              NAVIGATION DATA                         RINEX VERSION / TYPE
CCRINEXN V1.6.0 UX  CDDIS               10-JAN-16 23:40     PGM / RUN BY / DATE 
IGS BROADCAST EPHEMERIS FILE                                COMMENT             
    0.1118D-07 -0.7451D-08 -0.5960D-07  0.1192D-06          ION ALPHA           
    0.1167D+06 -0.2294D+06 -0.1311D+06  0.1049D+07          ION BETA            
   -0.186264514923D-08-0.444089209850D-14   233472     1879 DELTA-UTC: A0,A1,T,W
    17                                                      LEAP SECONDS        
                                                            END OF HEADER       
26 16  1 10  2  0  0.0-0.204240437597D-03-0.168256519828D-10 0.000000000000D+00
    0.101000000000D+03 0.753750000000D+02 0.485234519232D-08 0.226138273875D+01
    0.408291816711D-05 0.677521806210D-03 0.115483999252D-05 0.515369474029D+04
    0.720000000000D+04 0.279396772385D-07-0.188315234696D+01 0.104308128357D-06
    0.960425663001D+00 0.356687500000D+03-0.239069480032D+00-0.854428439112D-08
    0.215366113831D-09 0.100000000000D+01 0.187900000000D+04 0.000000000000D+00
    0.200000000000D+01 0.000000000000D+00 0.698491930962D-08 0.101000000000D+03
    0.300000000000D+02 0.000000000000D+00 0.000000000000D+00 0.000000000000D+00
27 16  1 10  2  0  0.0 0.520111061633D-04 0.341060513165D-11 0.000000000000D+00
    0.440000000000D+02-0.129687500000D+03 0.434268088156D-08 0.250802723786D+00
   -0.683590769768D-05 0.299155304674D-02 0.442750751972D-05 0.515363553238D+04
    0.720000000000D+04-0.558793544769D-08-0.833746469230D+00 0.316649675369D-07
    0.969921704172D+00 0.295187500000D+03 0.220985316834D+00-0.820427015214D-08
   -0.443947073547D-09 0.100000000000D+01 0.187900000000D+04 0.000000000000D+00
    0.200000000000D+01 0.000000000000D+00 0.139698386192D-08 0.440000000000D+02
    0.300000000000D+02 0.000000000000D+00 0.000000000000D+00 0.000000000000D+00
28 16  1 10  2  0  0.0 0.494265463203D-03 0.261479726760D-11 0.000000000000D+00
    0.240000000000D+02 0.585625000000D+02 0.441625536141D-08 0.988190906026D+00
    0.276230275631D-05 0.200320886215D-01 0.146962702274D-05 0.515369735718D+04
    0.720000000000D+04-0.342726707459D-06-0.180343064963D+01-0.208616256714D-06
    0.989206144841D+00 0.372375000000D+03-0.163068304349D+01-0.859928661612D-08
    0.110361740580D-09 0.100000000000D+01 0.187900000000D+04 0.000000000000D+00
    0.200000000000D+01 0.000000000000D+00-0.107102096081D-07 0.240000000000D+02
   -0.600000000000D+02 0.400000000000D+01 0.000000000000D+00 0.000000000000D+00
29 16  1 10  2  0  0.0 0.651198904961D-03 0.113686837722D-11 0.000000000000D+00
    0.500000000000D+01-0.136562500000D+03 0.413731537918D-08 0.283288293919D+01
   -0.716745853424D-05 0.961732352152D-03 0.495277345181D-05 0.515363652802D+04
    0.720000000000D+04 0.223517417908D-07-0.775056153274D+00-0.372529029846D-07
    0.975955266946D+00 0.291406250000D+03-0.601983850998D+00-0.801104782511D-08
   -0.418588858020D-09 0.100000000000D+01 0.187900000000D+04 0.000000000000D+00
    0.200000000000D+01 0.000000000000D+00-0.102445483208D-07 0.500000000000D+01
    0.300000000000D+02 0.000000000000D+00 0.000000000000D+00 0.000000000000D+00
30 16  1 10  2  0  0.0 0.823349691927D-04 0.488853402203D-11 0.000000000000D+00
    0.390000000000D+02 0.136281250000D+03 0.439232581514D-08-0.259448281147D+01
    0.702589750290D-05 0.163846847136D-02 0.109318643808D-04 0.515366122055D+04
    0.720000000000D+04-0.372529029846D-08-0.285439006883D+01-0.223517417908D-07
    0.954086856519D+00 0.168875000000D+03 0.308603777923D+01-0.790711507737D-08
    0.671456540289D-10 0.100000000000D+01 0.187900000000D+04 0.000000000000D+00
    0.200000000000D+01 0.000000000000D+00 0.325962901115D-08 0.390000000000D+02
    0.265200000000D+04 0.400000000000D+01 0.000000000000D+00 0.000000000000D+00
31 16  1 10  2  0  0.0 0.287704635412D-03-0.159161572810D-11 0.000000000000D+00
    0.740000000000D+02 0.113000000000D+03 0.396159371974D-08-0.262316953635D+01
    0.598281621933D-05 0.836771249306D-02 0.113416463137D-04 0.515368216896D+04
    0.720000000000D+04-0.115483999252D-06-0.289175214076D+01 0.931322574615D-07
    0.973168715218D+00 0.169125000000D+03-0.458614992892D+00-0.756638662835D-08
    0.117862048246D-10 0.100000000000D+01 0.187900000000D+04 0.000000000000D+00
    0.200000000000D+01 0.000000000000D+00-0.135041773319D-07 0.740000000000D+02
    0.300000000000D+02 0.000000000000D+00 0.000000000000D+00 0.000000000000D+00
32 16  1 10  2  0  0.0 0.757286325097D-04 0.126192389871D-10 0.000000000000D+00
    0.960000000000D+02 0.206562500000D+02 0.525843324439D-08-0.220016565752D+01
    0.103749334812D-05 0.113490603398D-01 0.482238829136D-05 0.515362333679D+04
    0.720000000000D+04-0.223517417908D-07 0.134337513009D+01-0.203028321266D-06
    0.946307694542D+00 0.279718750000D+03 0.209413914244D+00-0.834356139734D-08
    0.424660556719D-09 0.100000000000D+01 0.187900000000D+04 0.000000000000D+00
    0.280000000000D+01 0.000000000000D+00-0.372529029846D-08 0.960000000000D+02
    0.300000000000D+02 0.000000000000D+00 0.000000000000D+00 0.000000000000D+00
 1 16  1 10  3 59 44.0 0.875908881426D-05 0.909494701773D-12 0.000000000000D+00
    0.500000000000D+01-0.475000000000D+02 0.411124245758D-08-0.872458263034D+00
   -0.255927443504D-05 0.493690010626D-02 0.122133642435D-04 0.515366191292D+04
    0.143840000000D+05 0.134110450745D-06 0.223409685156D+00 0.558793544769D-08
    0.963928683247D+00 0.147062500000D+03 0.481165303083D+00-0.773817987465D-08
    0.273582823063D-09 0.100000000000D+01 0.187900000000D+04 0.000000000000D+00
    0.200000000000D+01 0.000000000000D+00 0.512227416039D-08 0.500000000000D+01
    0.123000000000D+05 0.000000000000D+00 0.000000000000D+00 0.000000000000D+00
11 16  1 10  3 59 44.0-0.626399647444D-03-0.204636307899D-11 0.000000000000D+00
    0.110000000000D+02-0.947500000000D+02 0.568559377356D-08-0.144474970173D+01
   -0.480003654957D-05 0.162175897276D-01 0.107139348984D-04 0.515365447617D+04
    0.143840000000D+05-0.931322574616D-08-0.143522230437D+00 0.458210706711D-06
    0.895726157950D+00 0.136218750000D+03 0.149419104582D+01-0.857285709088D-08
   -0.517878726014D-10 0.100000000000D+01 0.187900000000D+04 0.000000000000D+00
    0.200000000000D+01 0.000000000000D+00-0.121071934700D-07 0.110000000000D+02
    0.143100000000D+05 0.000000000000D+00 0.000000000000D+00 0.000000000000D+00
14 16  1 10  3 59 44.0 0.101453624666D-04-0.238742359215D-11 0.000000000000D+00
    0.270000000000D+02-0.318750000000D+02 0.455840416155D-08 0.122891607139D+01
   -0.164285302162D-05 0.829923921265D-02 0.858679413795D-05 0.515370492935D+04
    0.143840000000D+05-0.176951289177D-06 0.238800628312D+01-0.428408384323D-07
    0.964790875961D+00 0.214656250000D+03-0.194780475629D+01-0.807605068564D-08
   -0.630383400856D-09 0.000000000000D+00 0.187900000000D+04 0.000000000000D+00
    0.200000000000D+01 0.000000000000D+00-0.931322574616D-08 0.270000000000D+02
    0.117000000000D+05 0.400000000000D+01 0.000000000000D+00 0.000000000000D+00
15 16  1 10  3 59 44.0-0.291494652629D-03-0.193267624127D-11 0.000000000000D+00
    0.160000000000D+02-0.309062500000D+02 0.541665419682D-08 0.447174587302D+00
   -0.152923166752D-05 0.800217327196D-02 0.719912350178D-05 0.515377253342D+04
    0.143840000000D+05 0.651925802231D-07 0.225640019192D+01 0.147148966789D-06
    0.931434004548D+00 0.223906250000D+03 0.466047105350D+00-0.846428114271D-08
   -0.601096466652D-09 0.000000000000D+00 0.187900000000D+04 0.000000000000D+00
    0.200000000000D+01 0.000000000000D+00-0.107102096081D-07 0.160000000000D+02
    0.720000000000D+04 0.400000000000D+01 0.000000000000D+00 0.000000000000D+00
26 16  1 10  3 59 44.0-0.204361509532D-03-0.168256519828D-10 0.000000000000D+00
    0.300000000000D+01 0.908750000000D+02 0.490198992509D-08-0.297283599622D+01
    0.478513538837D-05 0.679785851389D-03 0.154413282871D-05 0.515369023704D+04
    0.143840000000D+05-0.484287738800D-07-0.188321375148D+01 0.279396772385D-07
    0.960427724253D+00 0.349406250000D+03-0.240197710250D+00-0.847428172079D-08
    0.271082711833D-09 0.100000000000D+01 0.187900000000D+04 0.000000000000D+00
    0.200000000000D+01 0.000000000000D+00 0.698491930962D-08 0.300000000000D+01
    0.867000000000D+04 0.000000000000D+00 0.000000000000D+00 0.000000000000D+00
31 16  1 10  3 59 44.0 0.287688337266D-03-0.159161572810D-11 0.000000000000D+00
    0.220000000000D+02 0.104281250000D+03 0.402552480239D-08-0.157547796455D+01
    0.522099435329D-05 0.836872914806D-02 0.118743628264D-04 0.515367920494D+04
    0.143840000000D+05-0.968575477600D-07-0.289180785161D+01-0.119209289551D-06
    0.973168415319D+00 0.161156250000D+03-0.458466740774D+00-0.774460851005D-08
    0.104290055758D-09 0.100000000000D+01 0.187900000000D+04 0.000000000000D+00
    0.200000000000D+01 0.000000000000D+00-0.135041773319D-07 0.220000000000D+02
    0.723000000000D+04 0.000000000000D+00 0.000000000000D+00 0.000000000000D+00
32 16  1 10  3 59 44.0 0.758222304285D-04 0.126192389871D-10 0.000000000000D+00
    0.700000000000D+01 0.210625000000D+02 0.524807575175D-08-0.115225071568D+01
    0.108592212200D-05 0.113489578944D-01 0.487454235554D-05 0.515362404633D+04
    0.143840000000D+05 0.121071934700D-06 0.134331513582D+01-0.178813934326D-06
    0.946310883704D+00 0.276906250000D+03 0.209381712492D+00-0.838606339926D-08
    0.418231699273D-09 0.100000000000D+01 0.187900000000D+04 0.000000000000D+00
    0.200000000000D+01 0.000000000000D+00-0.372529029846D-08 0.700000000000D+01
    0.723000000000D+04 0.000000000000D+00 0.000000000000D+00 0.000000000000D+00
